ALCOMSAT 1              
1 43039U 17078A   20084.13438410 -.00000197  00000-0  00000+0 0  9997
2 43039   0.0552  10.1332 0002142  17.1483 178.3739  1.00271953  8459
SBIRS GEO-3 (USA 282)   
1 43162U 18009A   20083.94493848 -.00000308  00000-0  00000+0 0  9997
2 43162   5.1201 317.3620 0001570  55.3183 288.3437  1.00272353  8014
AL YAH 3                
1 43174U 18012A   20084.09216187 -.00000167  00000-0  00000+0 0  9993
2 43174   0.0173 247.1726 0001868 120.1192 187.7923  1.00271092  8018
SES-14                  
1 43175U 18012B   20084.08774876 -.00000290  00000-0  00000+0 0  9994
2 43175   0.0176 236.4072 0000872 120.7044 168.9819  1.00271731  8232
GOES 17                 
1 43226U 18022A   20084.05743713  .00000086  00000-0  00000+0 0  9997
2 43226   0.0472 347.0874 0000985  28.6006  49.7418  1.00272164  7619
HISPASAT 30W-6          
1 43228U 18023A   20084.18868986 -.00000227  00000-0  00000+0 0  9992
2 43228   0.0506  26.9825 0005615 358.5516 194.4799  1.00271694  7677
SUPERBIRD 8             
1 43271U 18033A   20083.71826677 -.00000105  00000-0  00000+0 0  9995
2 43271   0.0109 213.1408 0001072 144.4288 244.6526  1.00271728  7227
HYLAS 4                 
1 43272U 18033B   20084.25049400 -.00000244  00000-0  00000+0 0  9991
2 43272   0.0650 122.8534 0001714  33.9711  82.0129  1.00271698  7253
IRNSS-1I                
1 43286U 18035A   20084.15257700  .00000114  00000-0  00000+0 0  9996
2 43286  28.9871 110.8596 0021067 189.1779 352.0288  1.00273285  7247
USA 283                 
1 43339U 18036A   20082.47327252 -.00000334  00000-0  00000+0 0  9994
2 43339   0.0022 117.4838 0001364 291.5076  75.8692  1.00268504  2470
COSMOS 2526             
1 43432U 18037A   20082.29354671 -.00000361  00000-0  00000+0 0  9994
2 43432   0.0179 123.4555 0000329 256.8477  33.6507  1.00272577  7139
APSTAR 6C               
1 43450U 18041A   20079.31577303 -.00000341  00000-0  00000+0 0  9995
2 43450   0.0311 278.8151 0002318 161.3289 344.8035  1.00268522  6974
BANGABANDHUSAT-1        
1 43463U 18044A   20081.63704017 -.00000381  00000-0  00000+0 0  9998
2 43463   0.0173 149.0489 0001973 241.8187 137.1561  1.00272762  6882
SES-12                  
1 43488U 18049A   20083.80245902 -.00000281  00000-0  00000+0 0  9993
2 43488   0.0408  74.8128 0001798 223.7925 267.0020  1.00271407  6595
FENGYUN 2H              
1 43491U 18050A   20078.54907321 -.00000151  00000-0  00000+0 0  9990
2 43491   0.8723 276.8358 0001765 201.8552 334.7760  1.00269565  6633
BEIDOU IGSO-7           
1 43539U 18057A   20083.73723196 -.00000157  00000-0  00000+0 0  9999
2 43539  55.0420 183.0326 0027119 207.8898 167.2115  1.00293658  6336
TELSTAR 19V             
1 43562U 18059A   20083.77522674 -.00000292  00000-0  00000+0 0  9999
2 43562   0.0091 170.6913 0000064 285.8337 301.2495  1.00274359  6343
TELKOM 4 (MERAH PUTIH)  
1 43587U 18064A   20083.73848010 -.00000356  00000-0  00000+0 0  9994
2 43587   0.0156 189.1078 0001485 212.6677 153.7330  1.00272817  6033
TELSTAR 18V (APSTAR 5C) 
1 43611U 18069A   20084.42821169 -.00000304  00000-0  00000+0 0  9993
2 43611   0.0247 184.7190 0001756 176.1339 113.6534  1.00269529  5797
AZERSPACE 2 (IS-38)     
1 43632U 18074A   20084.12345828  .00000125  00000-0  00000+0 0  9992
2 43632   0.0192 162.5639 0001275 208.0899 260.9399  1.00271305  5670
HORIZONS 3E             
1 43633U 18074B   20084.21935747 -.00000041  00000-0  00000+0 0  9996
2 43633   0.0249   3.1490 0000216 300.4981 126.4392  1.00272600  5524
AEHF-4 (USA 288)        
1 43651U 18079A   20084.27977958  .00000113  00000-0  00000+0 0  9996
2 43651   4.0442 311.2019 0003082  57.4855 124.1848  1.00269179  5478
BEIDOU-3 G1             
1 43683U 18085A   20083.86577361 -.00000259  00000-0  00000+0 0  9998
2 43683   1.9557 259.5413 0001402 151.1206 227.3730  1.00272856  5241
GSAT-29                 
1 43698U 18089A   20083.77965917  .00000073  00000-0  00000+0 0  9999
2 43698   0.0479 105.1496 0002224 248.6268 163.6105  1.00271874  4998
ES'HAIL 2               
1 43700U 18090A   20084.16924285  .00000133  00000-0  00000+0 0  9999
2 43700   0.0111 233.6318 0002256 162.5203 232.6759  1.00273611  5098
GEO-KOMPSAT-2A          
1 43823U 18100A   20083.67701562 -.00000357  00000-0  00000+0 0  9992
2 43823   0.0381  35.7292 0001775  27.3912 130.4570  1.00271564  4837
GSAT-11                 
1 43824U 18100B   20084.18104927 -.00000088  00000-0  00000+0 0  9993
2 43824   0.0563 267.0257 0006731 164.8933 249.3272  1.00272448  4806
GSAT-7A                 
1 43864U 18105A   20083.79632499  .00000014  00000-0  00000+0 0  9996
2 43864   0.0167 197.5369 0001024 196.7172 136.9342  1.00273045  4645
COSMOS 2533             
1 43867U 18107A   20083.84007560 -.00000051  00000-0  00000+0 0  9994
2 43867   0.0156 138.2175 0000305 225.6032 190.3688  1.00275966  4608
TJS-3                   
1 43874U 18110A   20084.66349934 -.00000007  00000-0  00000+0 0  9992
2 43874   0.0425 125.4917 0002771  98.1814  10.7586  1.00270238  4662
TJS-3 AKM               
1 43917U 18110C   20084.69327715  .00000047  00000-0  00000+0 0  9999
2 43917   0.3082 271.5455 0001628  96.4632 123.2632  1.00269454  4537
CHINASAT 2D (ZX 2D)     
1 43920U 19001A   20084.31901064 -.00000347  00000-0  00000+0 0  9991
2 43920   0.0377 284.2408 0001578  64.1687  78.6886  1.00273028  4547
HELLAS-SAT 4 & SGS-1    
1 44034U 19007A   20083.66533612  .00000140  00000-0  00000+0 0  9991
2 44034   0.0699 127.1216 0003384  14.8419 318.1694  1.00269996  4543
GSAT-31                 
1 44035U 19007B   20083.71524622 -.00000177  00000-0  00000+0 0  9990
2 44035   0.0295 126.1189 0006696 300.5274  95.4424  1.00272360  4137
NUSANTARA SATU          
1 44048U 19009A   20083.56230038 -.00000247  00000-0  00000+0 0  9992
2 44048   0.0160 136.9478 0001916 228.3898 164.5800  1.00271806  3949
CHINASAT 6C (ZX 6C)     
1 44067U 19012A   20083.92999794 -.00000349  00000-0  99999+0 0  9996
2 44067   0.0588 268.9171 0002200  23.2597 354.4845  1.00271007  3903
WGS 10 (USA 291)        
1 44071U 19014A   20084.28590897  .00000128  00000-0  00000+0 0  9993
2 44071   0.1541  98.8733 0000290  77.8872 132.3393  1.00270816  3784
TIANLIAN 2-01           
1 44076U 19017A   20083.60049381 -.00000152  00000-0  00000+0 0  9991
2 44076   2.2101 287.1923 0029781 208.2768 342.2436  1.00271213  3780
ARABSAT-6A              
1 44186U 19021A   20084.28590897  .00000143  00000-0  00000+0 0  9995
2 44186   0.0637 330.4588 0003086  11.5237 333.6154  1.00270453  3367
BEIDOU-3 IGSO-1         
1 44204U 19023A   20084.10021755 -.00000184  00000-0  10000-3 0  9992
2 44204  55.3739  61.8511 0013681 200.2719  70.1808  1.00262173  3537
BEIDOU-2 G8             
1 44231U 19027A   20084.56438266 -.00000258  00000-0  00000+0 0  9992
2 44231   1.1773 295.5818 0006113 288.2482 306.3360  1.00274950  3279
YAMAL 601               
1 44307U 19031A   20077.46624698  .00000098  00000-0  00000-0 0  9990
2 44307   0.0155 170.6487 0001869 199.0875  22.5737  1.00271752  3045
AT&T T-16               
1 44333U 19034A   20084.21090859 -.00000126  00000-0  00000+0 0  9991
2 44333   0.0218 218.9687 0000470 293.8134   4.4120  1.00270257  2830
EUTELSAT 7C             
1 44334U 19034B   20084.09771626  .00000037  00000-0  00000+0 0  9996
2 44334   0.0369 260.0823 0003940 139.8994 184.2199  1.00271616  3302
BEIDOU-3 IGSO-2         
1 44337U 19035A   20083.41301837 -.00000148  00000-0  00000+0 0  9992
2 44337  55.0633 179.0906 0012744 190.4270  68.0307  1.00265832  2865
COSMOS 2539             
1 44457U 19048A   20081.22636222  .00000062  00000-0  00000+0 0  9999
2 44457   0.0243 136.2585 0000716 346.2395 150.1863  1.00273725  2374
EDRS-C                  
1 44475U 19049A   20083.40964326  .00000141  00000-0  00000+0 0  9999
2 44475   0.0179 133.0922 0000789 250.0730 336.8198  1.00273579  2367
INTELSAT 39 (IS-39)     
1 44476U 19049B   20084.18660639  .00000023  00000-0  00000+0 0  9995
2 44476   0.0251 199.0041 0000084 240.1951 232.0353  1.00270521  2360
AMOS-17                 
1 44479U 19050A   20083.73494796  .00000097  00000-0  00000+0 0  9990
2 44479   0.0146 242.4904 0002211 196.5450  24.2131  1.00274780  2376
AEHF-5 (USA 292)        
1 44481U 19051A   20084.11299420 -.00000178  00000-0  00000+0 0  9995
2 44481   6.1507 308.9968 0002780  53.0548 126.4604  1.00273438  2437
EUTELSAT 5 WEST B       
1 44624U 19067A   20084.42827216 -.00000052  00000-0  00000+0 0  9996
2 44624   0.0048  83.5297 0003527 337.7118 270.2884  1.00270085  1639
TJS-4                   
1 44637U 19070A   20083.74527648 -.00000182  00000-0  00000+0 0  9998
2 44637   0.0526 318.5107 0009178  55.6836 159.2171  1.00273060  1738
BEIDOU-3 IGSO-3         
1 44709U 19073A   20082.55674492 -.00000125  00000-0  00000+0 0  9996
2 44709  58.5178 304.7869 0023477 177.1888   4.6005  1.00259759  1611
TIBA-1                  
1 44800U 19080A   20084.46299093  .00000146  00000-0  00000+0 0  9990
2 44800   0.0150 303.9367 0001383  46.1958  34.4512  1.00274628  1261
INMARSAT GX5            
1 44801U 19080B   20084.22132843  .00000117  00000-0  00000+0 0  9992
2 44801   0.0383 268.2786 0005914 123.8750 277.9498  0.99578062  1268
JCSAT-18 (KACIFIC 1)    
1 44868U 19091A   20084.42958628 -.00000211  00000-0  00000+0 0  9992
2 44868   0.0199 109.5548 0000561 247.7664 129.6408  1.00271096  1277
ELEKTRO-L 3             
1 44903U 19095A   20083.85466209 -.00000071  00000-0  00000+0 0  9995
2 44903   0.3668 282.6993 0003346  58.3175 314.1970  1.00271627   897
SHIJIAN-20 (SJ-20)      
1 44910U 19097A   20084.71646709 -.00000370  00000-0  00000+0 0  9998
2 44910   0.0558  71.9444 0007404 249.0621 234.8206  1.00271877   879
GSAT-30                 
1 45026U 20005A   20083.77965917  .00000103  00000-0  00000+0 0  9991
2 45026   0.0330 235.9583 0001712 222.2350  60.8389  0.99896844   705
